{"epoch":1784817359,"count":18317,"objects":[{"id":"40920","name":"COSMOS 2507","type":"PAYLOAD","l1":"1 40920U 15050A   26204.29372428 -.00000044  00000-0 -38772-3 0  9997","l2":"2 40920  82.4904  57.1848 0008881 273.3374  86.6690 12.42927383491348"},{"id":"40921","name":"COSMOS 2508","type":"PAYLOAD","l1":"1 40921U 15050B   26204.24908132 -.00000091  00000-0 -72929-3 0  9994","l2":"2 40921  82.4856  55.7039 0013604 308.4693  51.5165 12.42915000491323"},{"id":"40922","name":"COSMOS 2509","type":"PAYLOAD","l1":"1 40922U 15050C   26204.27030263 -.00000148  00000-0 -11407-2 0  9995","l2":"2 40922  82.4865  55.7968 0014247 326.2756  33.7416 12.42884258491362"},{"id":"40958","name":"LQSAT","type":"PAYLOAD","l1":"1 40958U 15057A   26204.25114817  .00000099  00000-0  20919-4 0  9990","l2":"2 40958  97.6707 195.8447 0017675 150.3515 209.8702 14.76818496580632"},{"id":"40959","name":"LINGQIAO VIDEO A","type":"PAYLOAD","l1":"1 40959U 15057B   26204.25703634  .00000221  00000-0  37761-4 0  9992","l2":"2 40959  97.6648 197.2838 0017459 147.3640 212.8654 14.77431967580738"},{"id":"40960","name":"LINGQIAO VIDEO B","type":"PAYLOAD","l1":"1 40960U 15057C   26204.29884650  .00001003  00000-0  14703-3 0  9995","l2":"2 40960  97.6612 198.4774 0017629 147.2585 212.9723 14.77540808580787"},{"id":"40961","name":"JILIN 1","type":"PAYLOAD","l1":"1 40961U 15057D   26204.29613326  .00000679  00000-0  10012-3 0  9993","l2":"2 40961  97.6525 201.8737 0017894 141.5363 218.7128 14.78210515580945"},{"id":"40967","name":"FOX-1","type":"PAYLOAD","l1":"1 40967U 15058D   26204.30272102  .00003792  00000-0  33669-3 0  9997","l2":"2 40967  64.7741 166.7325 0133071  42.7370 318.3997 14.91129767118956"},{"id":"40968","name":"BISONSAT","type":"PAYLOAD","l1":"1 40968U 15058E   26204.24321225  .00005576  00000-0  43849-3 0  9995","l2":"2 40968  64.7744 145.9777 0121726  39.1153 321.8682 14.96150866122058"},{"id":"41105","name":"ELEKTRO-L 2","type":"PAYLOAD","l1":"1 41105U 15074A   26203.96782013 -.00000119  00000-0  00000-0 0  9999","l2":"2 41105   6.7817  70.0808 0000650 230.5554 334.0031  1.00272653 38865"},{"id":"41173","name":"DAMPE","type":"PAYLOAD","l1":"1 41173U 15078A   26204.25047914  .00001203  00000-0  42922-4 0  9992","l2":"2 41173  97.4576 209.8983 0010639 314.8917  45.1460 15.30868155590069"},{"id":"41179","name":"ORBCOMM FM 114","type":"PAYLOAD","l1":"1 41179U 15081A   26204.13916460  .00000355  00000-0  11126-3 0  9998","l2":"2 41179  47.0031 192.0230 0002611 339.6474  20.4307 14.58893183563002"},{"id":"41182","name":"ORBCOMM FM 110","type":"PAYLOAD","l1":"1 41182U 15081D   26204.26381826  .00000695  00000-0  18307-3 0  9993","l2":"2 41182  47.0004 190.8550 0003837 253.7732 106.2732 14.58928471562891"},{"id":"41184","name":"ORBCOMM FM 112","type":"PAYLOAD","l1":"1 41184U 15081F   26204.09669605  .00000563  00000-0  15514-3 0  9991","l2":"2 41184  46.9990 100.4336 0003202   3.5634 356.5274 14.58947550564197"},{"id":"41185","name":"ORBCOMM FM 113","type":"PAYLOAD","l1":"1 41185U 15081G   26204.07460570  .00000311  00000-0  10187-3 0  9992","l2":"2 41185  47.0007 100.9337 0001765 353.8183   6.2680 14.58888123564175"},{"id":"41187","name":"ORBCOMM FM 108","type":"PAYLOAD","l1":"1 41187U 15081J   26204.17341584  .00000497  00000-0  14118-3 0  9991","l2":"2 41187  47.0061  12.0482 0002124 353.9189   6.1671 14.58918555565339"},{"id":"41188","name":"ORBCOMM FM 117","type":"PAYLOAD","l1":"1 41188U 15081K   26203.86528108  .00000476  00000-0  13688-3 0  9994","l2":"2 41188  47.0023  12.1305 0002530   1.4787 358.6105 14.58905160565338"},{"id":"41189","name":"ORBCOMM FM 116","type":"PAYLOAD","l1":"1 41189U 15081L   26204.11930582  .00000484  00000-0  13841-3 0  9997","l2":"2 41189  47.0023 100.7190 0001747 250.5157 109.5541 14.58914705564186"},{"id":"41338","name":"CHUBUSAT 2","type":"PAYLOAD","l1":"1 41338U 16012B   26204.03952648  .00006094  00000-0  26110-3 0  9992","l2":"2 41338  30.9976  86.0453 0008378  83.3769 276.7826 15.21201481573887"},{"id":"41339","name":"CHUBUSAT 3","type":"PAYLOAD","l1":"1 41339U 16012C   26204.08972257  .00005011  00000-0  22945-3 0  9996","l2":"2 41339  31.0045  96.1677 0008875  69.5824 290.5769 15.18818102573663"},{"id":"41556","name":"ZY 3 2","type":"PAYLOAD","l1":"1 41556U 16033A   26204.29962414  .00005783  00000-0  26203-3 0  9994","l2":"2 41556  97.3820 279.3786 0013580 159.9488 200.2285 15.21161468563474"},{"id":"41603","name":"LAPAN A3","type":"PAYLOAD","l1":"1 41603U 16040E   26204.28254914  .00003438  00000-0  10905-3 0  9990","l2":"2 41603  97.1511 199.2510 0008451 240.0882 119.9523 15.33314779560340"},{"id":"41727","name":"GAOFEN 3","type":"PAYLOAD","l1":"1 41727U 16049A   26204.29925287  .00000088  00000-0  39965-4 0  9991","l2":"2 41727  98.4028 211.5413 0001783  82.8238 277.3154 14.42219342523855"},{"id":"41783","name":"PRATHAM","type":"PAYLOAD","l1":"1 41783U 16059A   26203.97923500  .00000621  00000-0  11769-3 0  9998","l2":"2 41783  97.8343 199.2678 0032695 103.9950 256.4894 14.67234010524763"},{"id":"41789","name":"ALSAT 1N","type":"PAYLOAD","l1":"1 41789U 16059G   26204.07203690  .00000660  00000-0  11893-3 0  9998","l2":"2 41789  97.8024 205.8277 0027485  73.9706 286.4525 14.69357620525276"},{"id":"41857","name":"YUNHAI 1","type":"PAYLOAD","l1":"1 41857U 16068A   26204.27483773  .00000478  00000-0  19178-3 0  9999","l2":"2 41857  98.5859 214.9482 0002619 321.2104  38.8892 14.32727437506999"},{"id":"41877","name":"RESOURCESAT 2A","type":"PAYLOAD","l1":"1 41877U 16074A   26204.24736131  .00000208  00000-0  11517-3 0  9994","l2":"2 41877  98.7512 277.4543 0001859   9.2418 350.8793 14.21610774499426"},{"id":"41898","name":"TANSAT","type":"PAYLOAD","l1":"1 41898U 16081A   26204.29796406  .00000269  00000-0  66429-4 0  9991","l2":"2 41898  98.5385 205.6256 0019952 193.9565 166.1085 14.59975183509890"}]}