OBJECT_NAME,OBJECT_ID,EPOCH,MEAN_MOTION,ECCENTRICITY,INCLINATION,RA_OF_ASC_NODE,ARG_OF_PERICENTER,MEAN_ANOMALY,EPHEMERIS_TYPE,CLASSIFICATION_TYPE,NORAD_CAT_ID,ELEMENT_SET_NO,REV_AT_EPOCH,BSTAR,MEAN_MOTION_DOT,MEAN_MOTION_DDOT
COSMOS 2507 (RODNIK-S 13),2015-050A,2026-07-23T07:02:57.777792,12.42927383,.00088807,82.4904,57.1848,273.3374,86.6690,0,U,40920,999,49134,-.38772452E-3,-.44E-6,0
COSMOS 2508 (RODNIK-S 14),2015-050B,2026-07-23T05:58:40.626048,12.42915000,.00136044,82.4856,55.7039,308.4693,51.5165,0,U,40921,999,49132,-.72929446E-3,-.91E-6,0
COSMOS 2509 (RODNIK-S 15),2015-050C,2026-07-23T06:29:14.147232,12.42884258,.00142474,82.4865,55.7968,326.2756,33.7416,0,U,40922,999,49136,-.11406807E-2,-.148E-5,0
LQSAT,2015-057A,2026-07-23T06:01:39.201888,14.76818496,.00176747,97.6707,195.8447,150.3515,209.8702,0,U,40958,999,58063,.2091949E-4,.99E-6,0
LINGQIAO VIDEO A,2015-057B,2026-07-23T06:10:07.939776,14.77431967,.00174591,97.6648,197.2838,147.3640,212.8654,0,U,40959,999,58073,.37760953E-4,.221E-5,0
LINGQIAO VIDEO B,2015-057C,2026-07-23T07:10:20.337600,14.77540808,.00176294,97.6612,198.4774,147.2585,212.9723,0,U,40960,999,58078,.14702674E-3,.1003E-4,0
JILIN-1,2015-057D,2026-07-23T07:06:25.913664,14.78210515,.00178935,97.6525,201.8737,141.5363,218.7128,0,U,40961,999,58094,.10012132E-3,.679E-5,0
FOX-1A (AO-85),2015-058D,2026-07-23T07:15:55.096128,14.91129767,.01330713,64.7741,166.7325,42.7370,318.3997,0,U,40967,999,11895,.33668989E-3,.3792E-4,0
SINOD-D 1,2015-058E,2026-07-23T05:50:13.538400,14.96150866,.01217256,64.7744,145.9777,39.1153,321.8682,0,U,40968,999,12205,.43849411E-3,.5576E-4,0
ELEKTRO-L 2,2015-074A,2026-07-22T23:13:39.659232,1.00272653,.00006504,6.7817,70.0808,230.5554,334.0031,0,U,41105,999,3886,0,-.119E-5,0
DAMPE,2015-078A,2026-07-23T06:00:41.397696,15.30868155,.00106385,97.4576,209.8983,314.8917,45.1460,0,U,41173,999,59006,.42921596E-4,.1203E-4,0
ORBCOMM FM114,2015-081A,2026-07-23T03:20:23.821440,14.58893183,.00026113,47.0031,192.0230,339.6474,20.4307,0,U,41179,999,56300,.11126223E-3,.355E-5,0
ORBCOMM FM110,2015-081D,2026-07-23T06:19:53.897664,14.58928471,.00038374,47.0004,190.8550,253.7732,106.2732,0,U,41182,999,56289,.1830676E-3,.695E-5,0
ORBCOMM FM112,2015-081F,2026-07-23T02:19:14.538720,14.58947550,.00032019,46.9990,100.4336,3.5634,356.5274,0,U,41184,999,56419,.15514207E-3,.563E-5,0
ORBCOMM FM113,2015-081G,2026-07-23T01:47:25.932480,14.58888123,.00017654,47.0007,100.9337,353.8183,6.2680,0,U,41185,999,56417,.10187487E-3,.311E-5,0
ORBCOMM FM108,2015-081J,2026-07-23T04:09:43.128576,14.58918555,.0002124,47.0061,12.0482,353.9189,6.1671,0,U,41187,999,56533,.14118098E-3,.497E-5,0
ORBCOMM FM117,2015-081K,2026-07-22T20:46:00.285312,14.58905160,.00025302,47.0023,12.1305,1.4787,358.6105,0,U,41188,999,56533,.1368773E-3,.476E-5,0
ORBCOMM FM116,2015-081L,2026-07-23T02:51:48.022848,14.58914705,.00017471,47.0023,100.7190,250.5157,109.5541,0,U,41189,999,56418,.13841085E-3,.484E-5,0
CHUBUSAT-2,2016-012B,2026-07-23T00:56:55.087872,15.21201481,.00083779,30.9976,86.0453,83.3769,276.7826,0,U,41338,999,57388,.26110082E-3,.6094E-4,0
CHUBUSAT-3,2016-012C,2026-07-23T02:09:12.030048,15.18818102,.00088746,31.0045,96.1677,69.5824,290.5769,0,U,41339,999,57366,.22945269E-3,.5011E-4,0
ZIYUAN 3-02 (ZY 3-02),2016-033A,2026-07-23T07:11:27.525696,15.21161468,.00135803,97.3820,279.3786,159.9488,200.2285,0,U,41556,999,56347,.26202695E-3,.5783E-4,0
LAPAN-A3,2016-040E,2026-07-23T06:46:52.245696,15.33314779,.00084508,97.1511,199.2510,240.0882,119.9523,0,U,41603,999,56034,.10904992E-3,.3438E-4,0
GAOFEN-3,2016-049A,2026-07-23T07:10:55.447968,14.42219342,.00017834,98.4028,211.5413,82.8238,277.3154,0,U,41727,999,52385,.39964909E-4,.88E-6,0
PRATHAM,2016-059A,2026-07-22T23:30:05.904000,14.67234010,.00326945,97.8343,199.2678,103.9950,256.4894,0,U,41783,999,52476,.11769492E-3,.621E-5,0
ALSAT-1N,2016-059G,2026-07-23T01:43:43.988160,14.69357620,.00274848,97.8024,205.8277,73.9706,286.4525,0,U,41789,999,52527,.11892513E-3,.66E-5,0
YUNHAI-1 01,2016-068A,2026-07-23T06:35:45.979872,14.32727437,.00026191,98.5859,214.9482,321.2104,38.8892,0,U,41857,999,50699,.19177891E-3,.478E-5,0
RESOURCESAT-2A,2016-074A,2026-07-23T05:56:12.017184,14.21610774,.00018592,98.7512,277.4543,9.2418,350.8793,0,U,41877,999,49942,.1151661E-3,.208E-5,0
TANSAT,2016-081A,2026-07-23T07:09:04.094784,14.59975183,.00199522,98.5385,205.6256,193.9565,166.1085,0,U,41898,999,50989,.66428769E-4,.269E-5,0
